{
  "type": "FeatureCollection",
  "features": [
    {
      "type": "Feature",
      "properties": {
        "norad_id": 19071,
        "name": "OSCAR 32",
        "group": "nnss",
        "lat": 1.156240588087547,
        "lon": -163.7331499211233,
        "alt_km": 1018.7544607723512,
        "timestamp": "2025-12-04T05:42:43.641639+00:00",
        "meta_object_name": "OSCAR 32",
        "meta_object_id": "1988-033B",
        "meta_epoch": "2025-12-03T20:38:44.805120",
        "meta_mean_motion": 13.27952256,
        "meta_eccentricity": 0.01876074,
        "meta_inclination": 90.3227,
        "meta_ra_of_asc_node": 16.2485,
        "meta_arg_of_pericenter": 191.485,
        "meta_mean_anomaly": 342.7749,
        "meta_ephemeris_type": 0,
        "meta_classification_type": "U",
        "meta_norad_cat_id": 19071,
        "meta_element_set_no": 999,
        "meta_rev_at_epoch": 82147,
        "meta_bstar": 0.0002267063,
        "meta_mean_motion_dot": 1.21e-06,
        "meta_mean_motion_ddot": 0,
        "tle_line1": "1 19071U 88033B   25337.86024080  .00000121  00000+0  22671-3 0  9992",
        "tle_line2": "2 19071  90.3227  16.2485 0187607 191.4850 342.7749 13.27952256821476"
      },
      "geometry": {
        "type": "Point",
        "coordinates": [
          -163.7331499211233,
          1.156240588087547
        ]
      }
    },
    {
      "type": "Feature",
      "properties": {
        "norad_id": 19223,
        "name": "NOVA 2",
        "group": "nnss",
        "lat": 9.865602091135159,
        "lon": -101.71928458125178,
        "alt_km": 1190.312686210401,
        "timestamp": "2025-12-04T05:42:43.641649+00:00",
        "meta_object_name": "NOVA 2",
        "meta_object_id": "1988-052A",
        "meta_epoch": "2025-12-03T20:22:59.673792",
        "meta_mean_motion": 13.22934277,
        "meta_eccentricity": 0.00312959,
        "meta_inclination": 89.9873,
        "meta_ra_of_asc_node": 78.2834,
        "meta_arg_of_pericenter": 40.8343,
        "meta_mean_anomaly": 78.7636,
        "meta_ephemeris_type": 0,
        "meta_classification_type": "U",
        "meta_norad_cat_id": 19223,
        "meta_element_set_no": 999,
        "meta_rev_at_epoch": 80830,
        "meta_bstar": 0.00015420407,
        "meta_mean_motion_dot": 7.4e-07,
        "meta_mean_motion_ddot": 0,
        "tle_line1": "1 19223U 88052A   25337.84930178  .00000074  00000+0  15420-3 0  9995",
        "tle_line2": "2 19223  89.9873  78.2834 0031295  40.8343  78.7636 13.22934277808303"
      },
      "geometry": {
        "type": "Point",
        "coordinates": [
          -101.71928458125178,
          9.865602091135159
        ]
      }
    },
    {
      "type": "Feature",
      "properties": {
        "norad_id": 19419,
        "name": "OSCAR 25",
        "group": "nnss",
        "lat": 5.1875849856395115,
        "lon": 20.212766742067352,
        "alt_km": 1106.9327186899864,
        "timestamp": "2025-12-04T05:42:43.641659+00:00",
        "meta_object_name": "OSCAR 25",
        "meta_object_id": "1988-074A",
        "meta_epoch": "2025-12-03T21:37:06.019104",
        "meta_mean_motion": 13.42620786,
        "meta_eccentricity": 0.00942227,
        "meta_inclination": 90.0355,
        "meta_ra_of_asc_node": 20.2148,
        "meta_arg_of_pericenter": 271.5269,
        "meta_mean_anomaly": 263.6273,
        "meta_ephemeris_type": 0,
        "meta_classification_type": "U",
        "meta_norad_cat_id": 19419,
        "meta_element_set_no": 999,
        "meta_rev_at_epoch": 82521,
        "meta_bstar": 0.00028429919,
        "meta_mean_motion_dot": 1.73e-06,
        "meta_mean_motion_ddot": 0,
        "tle_line1": "1 19419U 88074A   25337.90076411  .00000173  00000+0  28430-3 0  9999",
        "tle_line2": "2 19419  90.0355  20.2148 0094222 271.5269 263.6273 13.42620786825212"
      },
      "geometry": {
        "type": "Point",
        "coordinates": [
          20.212766742067352,
          5.1875849856395115
        ]
      }
    },
    {
      "type": "Feature",
      "properties": {
        "norad_id": 19420,
        "name": "OSCAR 31",
        "group": "nnss",
        "lat": -68.93174246313566,
        "lon": -159.53180544652722,
        "alt_km": 1040.4485403073877,
        "timestamp": "2025-12-04T05:42:43.641668+00:00",
        "meta_object_name": "OSCAR 31",
        "meta_object_id": "1988-074B",
        "meta_epoch": "2025-12-03T22:11:24.847296",
        "meta_mean_motion": 13.42582468,
        "meta_eccentricity": 0.00924611,
        "meta_inclination": 90.0371,
        "meta_ra_of_asc_node": 20.5634,
        "meta_arg_of_pericenter": 265.5657,
        "meta_mean_anomaly": 269.6885,
        "meta_ephemeris_type": 0,
        "meta_classification_type": "U",
        "meta_norad_cat_id": 19420,
        "meta_element_set_no": 999,
        "meta_rev_at_epoch": 82532,
        "meta_bstar": 0.00025181595,
        "meta_mean_motion_dot": 1.54e-06,
        "meta_mean_motion_ddot": 0,
        "tle_line1": "1 19420U 88074B   25337.92459314  .00000154  00000+0  25182-3 0  9990",
        "tle_line2": "2 19420  90.0371  20.5634 0092461 265.5657 269.6885 13.42582468825323"
      },
      "geometry": {
        "type": "Point",
        "coordinates": [
          -159.53180544652722,
          -68.93174246313566
        ]
      }
    }
  ]
}